[{"OBJECT_NAME":"STARLINK-32659","OBJECT_ID":"2024-249U","EPOCH":"2026-03-09T23:22:57.363456","MEAN_MOTION":15.27603893,"ECCENTRICITY":0.00013021,"INCLINATION":42.9991,"RA_OF_ASC_NODE":312.7722,"ARG_OF_PERICENTER":256.0996,"MEAN_ANOMALY":103.9711,"EPHEMERIS_TYPE":0,"CLASSIFICATION_TYPE":"U","NORAD_CAT_ID":62427,"ELEMENT_SET_NO":999,"REV_AT_EPOCH":6785,"BSTAR":0.0014840477,"MEAN_MOTION_DOT":0.00040832,"MEAN_MOTION_DDOT":0},{"OBJECT_NAME":"FLOCK 4G-27","OBJECT_ID":"2025-009AJ","EPOCH":"2026-03-09T18:05:51.175392","MEAN_MOTION":15.27199247,"ECCENTRICITY":7.564e-5,"INCLINATION":97.3976,"RA_OF_ASC_NODE":150.8631,"ARG_OF_PERICENTER":322.4974,"MEAN_ANOMALY":37.6212,"EPHEMERIS_TYPE":0,"CLASSIFICATION_TYPE":"U","NORAD_CAT_ID":62641,"ELEMENT_SET_NO":999,"REV_AT_EPOCH":6371,"BSTAR":0.00047455305,"MEAN_MOTION_DOT":0.00012587,"MEAN_MOTION_DDOT":0}]
